TDRS 3                  
1 19548U 88091B   19359.86506764 -.00000306  00000-0  00000+0 0  9991
2 19548  14.2604 358.9953 0039072 316.0076  41.6676  1.00274300101641
HST                     
1 20580U 90037B   19359.81088714  .00000387  00000-0  12583-4 0  9999
2 20580  28.4708  34.7030 0002810  17.0374 146.0645 15.09316664429648
TDRS 5                  
1 21639U 91054B   19359.72701203  .00000077  00000-0  00000-0 0  9993
2 21639  14.2867  12.2730 0023312 353.2249 182.5332  1.00271580103995
TDRS 6                  
1 22314U 93003B   19359.89494153 -.00000302  00000-0  00000+0 0  9992
2 22314  13.9949  15.3755 0003731  53.4847 301.6409  1.00272922 98656
TDRS 7                  
1 23613U 95035B   19359.68706829 -.00000209  00000-0  00000-0 0  9992
2 23613  14.2258   6.0741 0028088  17.6751  42.3685  1.00273530 89534
ISS (ZARYA)             
1 25544U 98067A   19360.58537351 -.00000595  00000-0 -23302-5 0  9992
2 25544  51.6421 127.4975 0007822  74.9195  35.2897 15.50125033205107
LANDSAT 7               
1 25682U 99020A   19360.27404131  .00000005  00000-0  10837-4 0  9992
2 25682  98.1071  62.8706 0001462  75.4335 284.7027 14.57166751100879
TERRA                   
1 25994U 99068A   19360.29898958  .00000048  00000-0  20683-4 0  9993
2 25994  98.2112  72.0065 0000978 112.4597 247.6705 14.57113081 64953
TDRS 8                  
1 26388U 00034A   19360.02896149 -.00000239  00000-0  00000+0 0  9996
2 26388   8.9609  48.7655 0015546 288.4672 216.6510  1.00278222 71456
TIMED                   
1 26998U 01055B   19359.88211033  .00000066  00000-0  11170-4 0  9994
2 26998  74.0728 280.7072 0000900 304.3357  55.7738 14.88156212978528
TDRS 9                  
1 27389U 02011A   19359.49333730 -.00000291  00000-0  00000-0 0  9995
2 27389   7.1305  69.0637 0023791 263.1037 236.8528  1.00277213 66720
AQUA                    
1 27424U 02022A   19359.85576927  .00000075  00000-0  26749-4 0  9995
2 27424  98.2164 297.9260 0002072 133.0332 320.9463 14.57110635938440
TDRS 10                 
1 27566U 02055A   19359.79810946  .00000086  00000-0  00000+0 0  9992
2 27566   6.6053  54.4180 0007741 257.3535 258.4102  1.00267379 62509
SORCE                   
1 27651U 03004A   19360.33484073  .00000004  00000-0  14587-4 0  9992
2 27651  39.9946 220.9966 0024562 237.9049 121.9355 14.89065600918261
AURA                    
1 28376U 04026A   19359.84354219  .00000081  00000-0  28013-4 0  9998
2 28376  98.2168 300.0725 0001288  86.8318 273.3028 14.57115938821495
SWIFT                   
1 28485U 04047A   19360.11442011  .00000671  00000-0  15248-4 0  9993
2 28485  20.5555 165.2387 0011253  12.6620 347.4096 15.04507149827200
THEMIS A                
1 30580U 07004A   19359.33761521 -.00000285  00000-0  00000+0 0  9997
2 30580  12.1179  63.9031 8408924 355.0441   0.7327  0.87836727 45161
THEMIS D                
1 30797U 07004D   19357.41635479 -.00000466  00000-0  00000+0 0  9997
2 30797  11.2153  39.0915 8612223  22.1919 359.7034  0.71856900 44775
THEMIS E                
1 30798U 07004E   19358.87486286 -.00000383  00000-0  00000+0 0  9997
2 30798  10.0482  50.7179 8445948  12.9685 359.9188  0.81732252 45165
AIM                     
1 31304U 07015A   19359.89621926  .00000595  00000-0  37349-4 0  9993
2 31304  97.9296 230.8980 0004004 224.8738 135.2169 15.13357367694284
FGRST (GLAST)           
1 33053U 08029A   19359.86641898  .00000432  00000-0  78983-5 0  9999
2 33053  25.5813 209.2601 0012497 145.6670 214.4674 15.11286916636870
WISE                    
1 36119U 09071A   19360.37087580  .00000609  00000-0  23609-4 0  9993
2 36119  97.3507  33.7473 0000988 307.9491  52.1661 15.29868012557200
TDRS 11                 
1 39070U 13004A   19360.22818346  .00000081  00000-0  00000+0 0  9998
2 39070   4.0890 330.8652 0002974 336.3400  54.9294  1.00269026 25275
TDRS 12                 
1 39504U 14004A   19359.89581389 -.00000266  00000-0  00000-0 0  9993
2 39504   4.8742 337.4187 0002803 261.3643 136.9450  1.00274217 20564
GPM-CORE                
1 39574U 14009C   19360.18972528  .00002157  00000-0  35673-4 0  9996
2 39574  65.0071  24.3017 0011041 285.5362  74.4565 15.55516481330956
MMS 1                   
1 40482U 15011A   19354.06522330 -.00000757  00000-0  00000-0 0  9999
2 40482  22.4378 120.2610 8838474  16.8572 257.5780  0.28551840 10737
MMS 2                   
1 40483U 15011B   19337.62217593 -.00000258  00000-0  00000+0 0  9990
2 40483  21.9920 120.3069 8856780  16.4631   7.5824  0.28548838 10630
MMS 3                   
1 40484U 15011C   19354.06283924 -.00000757  00000-0  00000+0 0  9993
2 40484  22.4470 120.2587 8838317  16.8607 257.3287  0.28550619 10676
MMS 4                   
1 40485U 15011D   19354.06627264 -.00000757  00000-0  00000+0 0  9993
2 40485  22.4374 120.2661 8837927  16.8591 257.6731  0.28551837 10671
TDRS 13                 
1 42915U 17047A   19360.11713189 -.00000096  00000-0  00000+0 0  9995
2 42915   5.8399 330.2268 0011430  80.0103  74.8329  1.00272121  8661
JPSS-1                  
1 43013U 17073A   19360.46968042 -.00000022  00000-0  10524-4 0  9998
2 43013  98.7405 295.8746 0001413  94.7135 265.4202 14.19535949108971
